norad_id,name,regime,epoch,line1,line2,inclination,eccentricity,mean_motion,raan,arg_pericenter,mean_anomaly
40349,O3B FM11,MEO,18265.91858781,1 40349U 14083B   18265.91858781 -.00000027 +00000-0 +00000-0 0 0001\,2 40349 000.0390 013.3165 0003282 165.1552 181.5325 05.0011590606876,0.039,0.0003282,5.00115906,13.3165,165.1552,181.5325
40349,O3B FM11,MEO,18267.51771153,1 40349U 14083B   18267.51771153 -.00000024 +00000-0 +00000-0 0 0001\,2 40349 000.0391 013.4294 0003282 166.4928 180.0819 05.0011588106884,0.0391,0.0003282,5.00115881,13.4294,166.4928,180.0819
40349,O3B FM11,MEO,18267.71760224,1 40349U 14083B   18267.71760224 -.00000023 +00000-0 +00000-0 0 0296\,2 40349 000.0391 013.4251 0003283 166.6040 179.9749 05.0011586106885,0.0391,0.0003283,5.00115861,13.4251,166.604,179.9749
40349,O3B FM11,MEO,18269.51661558,1 40349U 14083B   18269.51661558 -.00000020 +00000-0 +00000-0 0 0001\,2 40349 000.0392 013.6241 0003281 168.2863 178.0934 05.0011588906893,0.0392,0.0003281,5.00115889,13.6241,168.2863,178.0934
40349,O3B FM11,MEO,18269.71650607,1 40349U 14083B   18269.71650607 -.00000020 +00000-0 +00000-0 0 0001\,2 40349 000.0392 013.7042 0003280 168.4735 177.8260 05.0011587906895,0.0392,0.000328,5.00115879,13.7042,168.4735,177.826
40349,O3B FM11,MEO,18270.71595831,1 40349U 14083B   18270.71595831 -.00000019 +00000-0 +00000-0 0 0001\,2 40349 000.0392 013.8550 0003279 169.2677 176.8807 05.0011586006900,0.0392,0.0003279,5.0011586,13.855,169.2677,176.8807
40349,O3B FM11,MEO,18271.71541057,1 40349U 14083B   18271.71541057 -.00000018 +00000-0 +00000-0 0 0001\,2 40349 000.0393 014.0035 0003277 170.0357 175.9638 05.0011583406905,0.0393,0.0003277,5.00115834,14.0035,170.0357,175.9638
40349,O3B FM11,MEO,18271.91530103,1 40349U 14083B   18271.91530103 -.00000018  00000-0  00000+0 0  2977\,2 40349   0.0393  14.0310 0003277 170.1895 175.7825  5.00115827 69061,0.0393,0.0003277,5.00115827,14.031,170.1895,175.7825
40349,O3B FM11,MEO,18272.71486284,1 40349U 14083B   18272.71486284 -.00000019 +00000-0 +00000-0 0 0001\,2 40349 000.0394 014.1640 0003277 170.6998 175.1388 05.0011580406910,0.0394,0.0003277,5.00115804,14.164,170.6998,175.1388
40349,O3B FM11,MEO,18273.71431469,1 40349U 14083B   18273.71431469 -.00000020 +00000-0 +00000-0 0 0001\,2 40349 000.0394 014.3248 0003275 171.4449 174.2320 05.0011579906915,0.0394,0.0003275,5.00115799,14.3248,171.4449,174.232
40349,O3B FM11,MEO,18274.51387603,1 40349U 14083B   18274.51387603 -.00000021 +00000-0 +00000-0 0 0001\,2 40349 000.0395 014.3759 0003275 172.1410 173.4842 05.0011580306919,0.0395,0.0003275,5.00115803,14.3759,172.141,173.4842
40349,O3B FM11,MEO,18274.71376641,1 40349U 14083B   18274.71376641 -.00000021 +00000-0 +00000-0 0 0001\,2 40349 000.0395 014.3985 0003275 172.2741 173.3282 05.0011580106920,0.0395,0.0003275,5.00115801,14.3985,172.2741,173.3282
40349,O3B FM11,MEO,18275.31343739,1 40349U 14083B   18275.31343739 -.00000022 +00000-0 +00000-0 0 0001\,2 40349 000.0396 014.5892 0003275 172.6906 172.7204 05.0011580106923,0.0396,0.0003275,5.00115801,14.5892,172.6906,172.7204
40349,O3B FM11,MEO,18275.71321822,1 40349U 14083B   18275.71321822 -.00000023 +00000-0 +00000-0 0 0001\,2 40349 000.0396 014.5788 0003274 173.0127 172.4083 05.0011579006925,0.0396,0.0003274,5.0011579,14.5788,173.0127,172.4083
40349,O3B FM11,MEO,18276.31288906,1 40349U 14083B   18276.31288906 -.00000024  00000-0  00000+0 0  2985\,2 40349   0.0396  14.7659 0003274 173.4468 171.7863  5.00115802 69281,0.0396,0.0003274,5.00115802,14.7659,173.4468,171.7863
40349,O3B FM11,MEO,18276.71266991,1 40349U 14083B   18276.71266991 -.00000024 +00000-0 +00000-0 0 0001\,2 40349 000.0396 014.8179 0003274 173.7438 171.4369 05.0011578906930,0.0396,0.0003274,5.00115789,14.8179,173.7438,171.4369
40349,O3B FM11,MEO,18277.31234110,1 40349U 14083B   18277.31234110 -.00000025 +00000-0 +00000-0 0 0001\,2 40349 000.0397 014.8628 0003272 173.9031 171.2324 05.0011578906933,0.0397,0.0003272,5.00115789,14.8628,173.9031,171.2324
40349,O3B FM11,MEO,18278.51168344,1 40349U 14083B   18278.51168344 -.00000027 +00000-0 +00000-0 0 0001\,2 40349 000.0397 015.1382 0003270 174.6813 170.1777 05.0011578006939,0.0397,0.000327,5.0011578,15.1382,174.6813,170.1777
40349,O3B FM11,MEO,18279.51113516,1 40349U 14083B   18279.51113516 -.00000028 +00000-0 +00000-0 0 0001\,2 40349 000.0398 015.2940 0003269 175.4454 169.2569 05.0011580106944,0.0398,0.0003269,5.00115801,15.294,175.4454,169.2569
40349,O3B FM11,MEO,18280.31069676,1 40349U 14083B   18280.31069676 -.00000029 +00000-0 +00000-0 0 0001\,2 40349 000.0398 015.4121 0003268 176.0052 168.5785 05.0011580706948,0.0398,0.0003268,5.00115807,15.4121,176.0052,168.5785
40349,O3B FM11,MEO,18282.70938223,1 40349U 14083B   18282.70938223 -.00000030  00000-0  00000+0 0  2997\,2 40349   0.0399  15.6119 0003268 177.6291 166.7540  5.00115807 69605,0.0399,0.0003268,5.00115807,15.6119,177.6291,166.754
40349,O3B FM11,MEO,18283.10916307,1 40349U 14083B   18283.10916307 -.00000030 +00000-0 +00000-0 0 0001\,2 40349 000.0399 015.6537 0003267 177.9512 166.3899 05.0011581506962,0.0399,0.0003267,5.00115815,15.6537,177.9512,166.3899
40349,O3B FM11,MEO,18284.30850575,1 40349U 14083B   18284.30850575 -.00000031 +00000-0 +00000-0 0 0001\,2 40349 000.0400 015.8543 0003267 178.7312 165.4089 05.0011582806968,0.04,0.0003267,5.00115828,15.8543,178.7312,165.4089
40349,O3B FM11,MEO,18285.30795757,1 40349U 14083B   18285.30795757 -.00000031 +00000-0 +00000-0 0 0001\,2 40349 000.0401 015.9228 0003265 179.6291 164.4422 05.0011586506973,0.0401,0.0003265,5.00115865,15.9228,179.6291,164.4422
40349,O3B FM11,MEO,18286.50730017,1 40349U 14083B   18286.50730017 -.00000032 +00000-0 +00000-0 0 0001\,2 40349 000.0402 016.0323 0003263 180.8781 163.0831 05.0011586706978,0.0402,0.0003263,5.00115867,16.0323,180.8781,163.0831
40349,O3B FM11,MEO,18286.70719065,1 40349U 14083B   18286.70719065 -.00000032 +00000-0 +00000-0 0 0001\,2 40349 000.0402 016.0588 0003263 181.0174 162.9173 05.0011586506979,0.0402,0.0003263,5.00115865,16.0588,181.0174,162.9173
40349,O3B FM11,MEO,18287.10697139,1 40349U 14083B   18287.10697139 -.00000032  00000-0  00000+0 0  3009\,2 40349   0.0402  16.1053 0003263 181.3397 162.5483  5.00115877 69828,0.0402,0.0003263,5.00115877,16.1053,181.3397,162.5483
40349,O3B FM11,MEO,18287.30686185,1 40349U 14083B   18287.30686185 -.00000032 +00000-0 +00000-0 0 0001\,2 40349 000.0402 016.1282 0003262 181.4661 162.3989 05.0011587806983,0.0402,0.0003262,5.00115878,16.1282,181.4661,162.3989
40349,O3B FM11,MEO,18288.70609475,1 40349U 14083B   18288.70609475 -.00000032 +00000-0 +00000-0 0 0001\,2 40349 000.0403 016.3989 0003262 182.6208 160.9730 05.0011589006990,0.0403,0.0003262,5.0011589,16.3989,182.6208,160.973
40349,O3B FM11,MEO,18289.70554667,1 40349U 14083B   18289.70554667 -.00000031 +00000-0 +00000-0 0 0001\,2 40349 000.0404 016.5228 0003262 183.4803 159.9892 05.0011590906995,0.0404,0.0003262,5.00115909,16.5228,183.4803,159.9892
40349,O3B FM11,MEO,18290.70499865,1 40349U 14083B   18290.70499865 -.00000030 +00000-0 +00000-0 0 0001\,2 40349 000.0404 016.5820 0003264 184.3667 159.0431 05.0011591907000,0.0404,0.0003264,5.00115919,16.582,184.3667,159.0431
40349,O3B FM11,MEO,18291.50456064,1 40349U 14083B   18291.50456064 -.00000028  00000-0  00000+0 0  3014\,2 40349   0.0405  16.7474 0003263 184.8836 158.3607  5.00115900 70044,0.0405,0.0003263,5.001159,16.7474,184.8836,158.3607
40349,O3B FM11,MEO,18291.70445104,1 40349U 14083B   18291.70445104 -.00000028 +00000-0 +00000-0 0 0001\,2 40349 000.0405 016.7754 0003263 185.0508 158.1655 05.0011590207005,0.0405,0.0003263,5.00115902,16.7754,185.0508,158.1655
40349,O3B FM11,MEO,18292.30412236,1 40349U 14083B   18292.30412236 -.00000027 +00000-0 +00000-0 0 0001\,2 40349 000.0405 016.8599 0003262 185.5497 157.5819 05.0011589907008,0.0405,0.0003262,5.00115899,16.8599,185.5497,157.5819
40349,O3B FM11,MEO,18292.70390314,1 40349U 14083B   18292.70390314 -.00000026 +00000-0 +00000-0 0 0001\,2 40349 000.0405 016.8289 0003261 185.8493 157.3133 05.0011590807010,0.0405,0.0003261,5.00115908,16.8289,185.8493,157.3133
40349,O3B FM11,MEO,18293.50346525,1 40349U 14083B   18293.50346525 -.00000024 +00000-0 +00000-0 0 0001\,2 40349 000.0405 016.9416 0003261 186.4946 156.5553 05.0011587607014,0.0405,0.0003261,5.00115876,16.9416,186.4946,156.5553
40349,O3B FM11,MEO,18293.70335563,1 40349U 14083B   18293.70335563 -.00000024 +00000-0 +00000-0 0 0001\,2 40349 000.0405 017.0338 0003260 186.6955 156.2621 05.0011587807015,0.0405,0.000326,5.00115878,17.0338,186.6955,156.2621
40349,O3B FM11,MEO,18293.90324608,1 40349U 14083B   18293.90324608 -.00000023 +00000-0 +00000-0 0 0001\,2 40349 000.0405 017.0649 0003261 186.8298 156.0966 05.0011587607016,0.0405,0.0003261,5.00115876,17.0649,186.8298,156.0966
40349,O3B FM11,MEO,18294.70280775,1 40349U 14083B   18294.70280775 -.00000022 +00000-0 +00000-0 0 0001\,2 40349 000.0406 017.1387 0003259 187.5880 155.2645 05.0011587807020,0.0406,0.0003259,5.00115878,17.1387,187.588,155.2645
40349,O3B FM11,MEO,18297.50127409,1 40349U 14083B   18297.50127409 -.00000017 +00000-0 +00000-0 0 0001\,2 40349 000.0407 017.2419 0003254 190.3430 152.4058 05.0011583907033,0.0407,0.0003254,5.00115839,17.2419,190.343,152.4058
40349,O3B FM11,MEO,18298.50072616,1 40349U 14083B   18298.50072616 -.00000016 +00000-0 +00000-0 0 0001\,2 40349 000.0408 017.4607 0003257 190.6644 151.8656 05.0011583507039,0.0408,0.0003257,5.00115835,17.4607,190.6644,151.8656
40349,O3B FM11,MEO,18299.10039744,1 40349U 14083B   18299.10039744 -.00000016  00000-0  00000+0 0  3028\,2 40349   0.0408  17.4921 0003253 191.4242 151.0741  5.00115820 70428,0.0408,0.0003253,5.0011582,17.4921,191.4242,151.0741
40349,O3B FM11,MEO,18299.70006878,1 40349U 14083B   18299.70006878 -.00000016 +00000-0 +00000-0 0 0001\,2 40349 000.0409 017.4639 0003254 191.8248 150.7014 05.0011581007044,0.0409,0.0003254,5.0011581,17.4639,191.8248,150.7014
